{"fetched_at":"2026-03-30T06:02:59Z","count":15439,"tles":[{"name":"STARLINK-2122","line1":"1 47400U 21005BD  26087.82354984  .00014558  00000+0  50248-3 0  9993","line2":"2 47400  53.1573 284.6326 0001030  99.0365 261.0752 15.30213658286652","category":"Starlink"}]}